[
  {
    "OBJECT_NAME": "NOAA 15",
    "OBJECT_ID": "1998-030A",
    "EPOCH": "2025-06-07T20:21:21.725568",
    "MEAN_MOTION": 14.26978783,
    "ECCENTRICITY": 0.0010345,
    "INCLINATION": 98.5347,
    "RA_OF_ASC_NODE": 184.0212,
    "ARG_OF_PERICENTER": 11.7277,
    "MEAN_ANOMALY": 348.4143,
    "EPHEMERIS_TYPE": 0,
    "CLASSIFICATION_TYPE": "U",
    "NORAD_CAT_ID": 25338,
    "ELEMENT_SET_NO": 999,
    "REV_AT_EPOCH": 40815,
    "BSTAR": 0.00010703,
    "MEAN_MOTION_DOT": 2.17e-06,
    "MEAN_MOTION_DDOT": 0
  },
  {
    "OBJECT_NAME": "DMSP 5D-3 F16 (USA 172)",
    "OBJECT_ID": "2003-048A",
    "EPOCH": "2025-06-07T21:27:47.356704",
    "MEAN_MOTION": 14.14355823,
    "ECCENTRICITY": 0.0008165,
    "INCLINATION": 99.0123,
    "RA_OF_ASC_NODE": 174.7148,
    "ARG_OF_PERICENTER": 121.8984,
    "MEAN_ANOMALY": 5.7315,
    "EPHEMERIS_TYPE": 0,
    "CLASSIFICATION_TYPE": "U",
    "NORAD_CAT_ID": 28054,
    "ELEMENT_SET_NO": 999,
    "REV_AT_EPOCH": 11655,
    "BSTAR": 9.1956e-05,
    "MEAN_MOTION_DOT": 1.3e-06,
    "MEAN_MOTION_DDOT": 0
  },
  {
    "OBJECT_NAME": "NOAA 18",
    "OBJECT_ID": "2005-018A",
    "EPOCH": "2025-06-07T20:27:43.338816",
    "MEAN_MOTION": 14.13609833,
    "ECCENTRICITY": 0.001515,
    "INCLINATION": 98.8423,
    "RA_OF_ASC_NODE": 238.3483,
    "ARG_OF_PERICENTER": 131.9844,
    "MEAN_ANOMALY": 228.2621,
    "EPHEMERIS_TYPE": 0,
    "CLASSIFICATION_TYPE": "U",
    "NORAD_CAT_ID": 28654,
    "ELEMENT_SET_NO": 999,
    "REV_AT_EPOCH": 3350,
    "BSTAR": 5.7426e-05,
    "MEAN_MOTION_DOT": 6.4e-07,
    "MEAN_MOTION_DDOT": 0
  },
  {
    "OBJECT_NAME": "METEOSAT-9 (MSG-2)",
    "OBJECT_ID": "2005-049B",
    "EPOCH": "2025-06-07T21:01:09.067296",
    "MEAN_MOTION": 1.00268593,
    "ECCENTRICITY": 0.0002686,
    "INCLINATION": 8.5074,
    "RA_OF_ASC_NODE": 57.7404,
    "ARG_OF_PERICENTER": 358.6429,
    "MEAN_ANOMALY": 201.1345,
    "EPHEMERIS_TYPE": 0,
    "CLASSIFICATION_TYPE": "U",
    "NORAD_CAT_ID": 28912,
    "ELEMENT_SET_NO": 999,
    "REV_AT_EPOCH": 7132,
    "BSTAR": 0,
    "MEAN_MOTION_DOT": 1.37e-06,
    "MEAN_MOTION_DDOT": 0
  },
  {
    "OBJECT_NAME": "EWS-G1 (GOES 13)",
    "OBJECT_ID": "2006-018A",
    "EPOCH": "2025-06-07T10:00:12.194784",
    "MEAN_MOTION": 0.98794178,
    "ECCENTRICITY": 0.0061442,
    "INCLINATION": 3.558,
    "RA_OF_ASC_NODE": 81.0167,
    "ARG_OF_PERICENTER": 266.6262,
    "MEAN_ANOMALY": 310.0215,
    "EPHEMERIS_TYPE": 0,
    "CLASSIFICATION_TYPE": "U",
    "NORAD_CAT_ID": 29155,
    "ELEMENT_SET_NO": 999,
    "REV_AT_EPOCH": 3954,
    "BSTAR": 0,
    "MEAN_MOTION_DOT": 5.8e-07,
    "MEAN_MOTION_DDOT": 0
  },
  {
    "OBJECT_NAME": "DMSP 5D-3 F17 (USA 191)",
    "OBJECT_ID": "2006-050A",
    "EPOCH": "2025-06-07T20:58:15.410208",
    "MEAN_MOTION": 14.14835206,
    "ECCENTRICITY": 0.0011037,
    "INCLINATION": 98.7381,
    "RA_OF_ASC_NODE": 168.1254,
    "ARG_OF_PERICENTER": 49.2281,
    "MEAN_ANOMALY": 310.9848,
    "EPHEMERIS_TYPE": 0,
    "CLASSIFICATION_TYPE": "U",
    "NORAD_CAT_ID": 29522,
    "ELEMENT_SET_NO": 999,
    "REV_AT_EPOCH": 95948,
    "BSTAR": 4.4759e-05,
    "MEAN_MOTION_DOT": 4.3e-07,
    "MEAN_MOTION_DDOT": 0
  },
  {
    "OBJECT_NAME": "FENGYUN 3A",
    "OBJECT_ID": "2008-026A",
    "EPOCH": "2025-06-07T16:38:00.696768",
    "MEAN_MOTION": 14.19445004,
    "ECCENTRICITY": 0.000958,
    "INCLINATION": 98.648,
    "RA_OF_ASC_NODE": 102.4674,
    "ARG_OF_PERICENTER": 122.7911,
    "MEAN_ANOMALY": 237.419,
    "EPHEMERIS_TYPE": 0,
    "CLASSIFICATION_TYPE": "U",
    "NORAD_CAT_ID": 32958,
    "ELEMENT_SET_NO": 999,
    "REV_AT_EPOCH": 88238,
    "BSTAR": 6.1385e-05,
    "MEAN_MOTION_DOT": 8.6e-07,
    "MEAN_MOTION_DDOT": 0
  },
  {
    "OBJECT_NAME": "NOAA 19",
    "OBJECT_ID": "2009-005A",
    "EPOCH": "2025-06-07T20:36:37.318464",
    "MEAN_MOTION": 14.13373529,
    "ECCENTRICITY": 0.0013823,
    "INCLINATION": 98.9972,
    "RA_OF_ASC_NODE": 223.5536,
    "ARG_OF_PERICENTER": 13.4362,
    "MEAN_ANOMALY": 346.7175,
    "EPHEMERIS_TYPE": 0,
    "CLASSIFICATION_TYPE": "U",
    "NORAD_CAT_ID": 33591,
    "ELEMENT_SET_NO": 999,
    "REV_AT_EPOCH": 84186,
    "BSTAR": 0.00011973,
    "MEAN_MOTION_DOT": 1.8e-06,
    "MEAN_MOTION_DDOT": 0
  },
  {
    "OBJECT_NAME": "GOES 14",
    "OBJECT_ID": "2009-033A",
    "EPOCH": "2025-06-07T13:25:59.331936",
    "MEAN_MOTION": 1.00273373,
    "ECCENTRICITY": 0.0001965,
    "INCLINATION": 0.7119,
    "RA_OF_ASC_NODE": 88.1066,
    "ARG_OF_PERICENTER": 50.0797,
    "MEAN_ANOMALY": 211.1832,
    "EPHEMERIS_TYPE": 0,
    "CLASSIFICATION_TYPE": "U",
    "NORAD_CAT_ID": 35491,
    "ELEMENT_SET_NO": 999,
    "REV_AT_EPOCH": 283,
    "BSTAR": 0,
    "MEAN_MOTION_DOT": -5e-07,
    "MEAN_MOTION_DDOT": 0
  },
  {
    "OBJECT_NAME": "DMSP 5D-3 F18 (USA 210)",
    "OBJECT_ID": "2009-057A",
    "EPOCH": "2025-06-07T21:03:30.563712",
    "MEAN_MOTION": 14.14631726,
    "ECCENTRICITY": 0.0010071,
    "INCLINATION": 98.859,
    "RA_OF_ASC_NODE": 136.4757,
    "ARG_OF_PERICENTER": 231.7566,
    "MEAN_ANOMALY": 128.2701,
    "EPHEMERIS_TYPE": 0,
    "CLASSIFICATION_TYPE": "U",
    "NORAD_CAT_ID": 35951,
    "ELEMENT_SET_NO": 999,
    "REV_AT_EPOCH": 80664,
    "BSTAR": 0.00015778,
    "MEAN_MOTION_DOT": 2.59e-06,
    "MEAN_MOTION_DDOT": 0
  },
  {
    "OBJECT_NAME": "EWS-G2 (GOES 15)",
    "OBJECT_ID": "2010-008A",
    "EPOCH": "2025-06-07T13:57:52.350624",
    "MEAN_MOTION": 1.00269582,
    "ECCENTRICITY": 0.0001787,
    "INCLINATION": 0.3077,
    "RA_OF_ASC_NODE": 85.6461,
    "ARG_OF_PERICENTER": 108.6627,
    "MEAN_ANOMALY": 332.769,
    "EPHEMERIS_TYPE": 0,
    "CLASSIFICATION_TYPE": "U",
    "NORAD_CAT_ID": 36411,
    "ELEMENT_SET_NO": 999,
    "REV_AT_EPOCH": 5588,
    "BSTAR": 0,
    "MEAN_MOTION_DOT": 5.5e-07,
    "MEAN_MOTION_DDOT": 0
  },
  {
    "OBJECT_NAME": "COMS 1",
    "OBJECT_ID": "2010-032A",
    "EPOCH": "2025-06-07T14:42:42.738624",
    "MEAN_MOTION": 1.00272238,
    "ECCENTRICITY": 0.0001072,
    "INCLINATION": 3.853,
    "RA_OF_ASC_NODE": 80.0413,
    "ARG_OF_PERICENTER": 349.7086,
    "MEAN_ANOMALY": 175.307,
    "EPHEMERIS_TYPE": 0,
    "CLASSIFICATION_TYPE": "U",
    "NORAD_CAT_ID": 36744,
    "ELEMENT_SET_NO": 999,
    "REV_AT_EPOCH": 4733,
    "BSTAR": 0,
    "MEAN_MOTION_DOT": -3.29e-06,
    "MEAN_MOTION_DDOT": 0
  },
  {
    "OBJECT_NAME": "FENGYUN 3B",
    "OBJECT_ID": "2010-059A",
    "EPOCH": "2025-06-07T21:59:42.179424",
    "MEAN_MOTION": 14.14729847,
    "ECCENTRICITY": 0.0022456,
    "INCLINATION": 99.0126,
    "RA_OF_ASC_NODE": 197.2841,
    "ARG_OF_PERICENTER": 164.2574,
    "MEAN_ANOMALY": 315.6447,
    "EPHEMERIS_TYPE": 0,
    "CLASSIFICATION_TYPE": "U",
    "NORAD_CAT_ID": 37214,
    "ELEMENT_SET_NO": 999,
    "REV_AT_EPOCH": 75454,
    "BSTAR": 5.4874e-05,
    "MEAN_MOTION_DOT": 6e-07,
    "MEAN_MOTION_DDOT": 0
  },
  {
    "OBJECT_NAME": "SUOMI NPP",
    "OBJECT_ID": "2011-061A",
    "EPOCH": "2025-06-07T20:24:03.923424",
    "MEAN_MOTION": 14.19538173,
    "ECCENTRICITY": 0.0001187,
    "INCLINATION": 98.7579,
    "RA_OF_ASC_NODE": 98.1363,
    "ARG_OF_PERICENTER": 11.2533,
    "MEAN_ANOMALY": 348.867,
    "EPHEMERIS_TYPE": 0,
    "CLASSIFICATION_TYPE": "U",
    "NORAD_CAT_ID": 37849,
    "ELEMENT_SET_NO": 999,
    "REV_AT_EPOCH": 70532,
    "BSTAR": 5.3608e-05,
    "MEAN_MOTION_DOT": 6.9e-07,
    "MEAN_MOTION_DDOT": 0
  }
]