25338,NOAA 15,1998,100.91,2223.0,B,98.53,Active,1,LEO,USA,USA,Government,Earth Observation,Titan,1 25338U 98030A   25158.84816812  .00000217  00000+0  10703-3 0  9993,2 25338  98.5347 184.0212 0010345  11.7277 348.4143 14.26978783408155,14.26978783,0.0010345,LEO
28054,DMSP 5D-3 F16 (USA 172),2003,101.81,1154.0,B,99.01,Active,1,LEO,USA,USA,Military,Earth Observation,Titan,1 28054U 03048A   25158.89429811  .00000130  00000+0  91956-4 0  9994,2 28054  99.0123 174.7148 0008165 121.8984   5.7315 14.14355823116555,14.14355823,0.0008165,LEO
28654,NOAA 18,2005,101.87,2223.0,B,98.84,Active,1,LEO,USA,USA,Government,Earth Observation,Delta,1 28654U 05018A   25158.85258494  .00000064  00000+0  57426-4 0  9992,2 28654  98.8423 238.3483 0015150 131.9844 228.2621 14.13609833 33506,14.13609833,0.001515,LEO
28912,METEOSAT-9 (MSG-2),2005,1436.15,2000.0,+,8.51,Active,1,GSO,French Guiana,EUMETSAT,Civil/Government,Earth Observation,Ariane,1 28912U 05049B   25158.87579939  .00000137  00000+0  00000+0 0  9997,2 28912   8.5074  57.7404 0002686 358.6429 201.1345  1.00268593 71327,1.00268593,0.0002686,GSO
29155,EWS-G1 (GOES 13),2006,1457.58,3200.0,B,3.56,Active,1,GSO,USA,USA,Military,Earth Observation,Delta,1 29155U 06018A   25158.41680781  .00000058  00000+0  00000+0 0  9994,2 29155   3.5580  81.0167 0061442 266.6262 310.0215  0.98794178 39541,0.98794178,0.0061442,GSO
29522,DMSP 5D-3 F17 (USA 191),2006,101.78,1154.0,+,98.74,Active,1,LEO,USA,USA,Military,Earth Observation,Delta,1 29522U 06050A   25158.87378947  .00000043  00000+0  44759-4 0  9994,2 29522  98.7381 168.1254 0011037  49.2281 310.9848 14.14835206959485,14.14835206,0.0011037,LEO
32958,FENGYUN 3A,2008,101.45,-1.0,+,98.65,Active,0,LEO,PRC,China,Unknown,Unknown,Unknown,1 32958U 08026A   25158.69306362  .00000086  00000+0  61385-4 0  9999,2 32958  98.6480 102.4674 0009580 122.7911 237.4190 14.19445004882380,14.19445004,0.000958,LEO
33591,NOAA 19,2009,101.88,1420.0,+,99.0,Active,1,LEO,USA,USA,Government,Earth Observation,Delta,1 33591U 09005A   25158.85876526  .00000180  00000+0  11973-3 0  9995,2 33591  98.9972 223.5536 0013823  13.4362 346.7175 14.13373529841867,14.13373529,0.0013823,LEO
35491,GOES 14,2009,1436.07,3200.0,B,0.71,Active,1,GSO,USA,USA,Government,Earth Observation,Delta,1 35491U 09033A   25158.55971449 -.00000050  00000+0  00000+0 0  9996,2 35491   0.7119  88.1066 0001965  50.0797 211.1832  1.00273373  2837,1.00273373,0.0001965,GEO
35951,DMSP 5D-3 F18 (USA 210),2009,101.79,1155.0,+,98.86,Active,1,LEO,USA,USA,Military,Earth Observation,Atlas,1 35951U 09057A   25158.87743708  .00000259  00000+0  15778-3 0  9995,2 35951  98.8590 136.4757 0010071 231.7566 128.2701 14.14631726806646,14.14631726,0.0010071,LEO
36411,EWS-G2 (GOES 15),2010,1436.13,3175.0,B,0.31,Active,1,GSO,USA,USA,Government,Earth Observation,Delta,1 36411U 10008A   25158.58185591  .00000055  00000+0  00000+0 0  9995,2 36411   0.3077  85.6461 0001787 108.6627 332.7690  1.00269582 55886,1.00269582,0.0001787,GEO
36744,COMS 1,2010,1436.09,2460.0,+,3.85,Active,1,GSO,French Guiana,South Korea,Government,Earth Observation/Communications,Ariane,1 36744U 10032A   25158.61299466 -.00000329  00000+0  00000+0 0  9997,2 36744   3.8530  80.0413 0001072 349.7086 175.3070  1.00272238 47333,1.00272238,0.0001072,GSO
37214,FENGYUN 3B,2010,101.79,2300.0,+,99.01,Active,1,LEO,PRC,China,Government,Earth Observation,Long March,1 37214U 10059A   25158.91646041  .00000060  00000+0  54874-4 0  9991,2 37214  99.0126 197.2841 0022456 164.2574 315.6447 14.14729847754548,14.14729847,0.0022456,LEO
37849,SUOMI NPP,2011,101.44,2128.0,+,98.76,Active,1,LEO,USA,USA,Government,Earth Observation,Delta,1 37849U 11061A   25158.85004541  .00000069  00000+0  53608-4 0  9998,2 37849  98.7579  98.1363 0001187  11.2533 348.8670 14.19538173705325,14.19538173,0.0001187,LEO
